{
  "links" : {
    "next" : "https://api.nasa.gov/neo/rest/v1/feed?start_date=2014-10-09&end_date=2014-10-09&detailed=true&api_key=t0TVs3DtDT2H8Oy2Zy8m2eVrNsAVKAexjcZXUckd",
    "prev" : "https://api.nasa.gov/neo/rest/v1/feed?start_date=2014-10-07&end_date=2014-10-07&detailed=true&api_key=t0TVs3DtDT2H8Oy2Zy8m2eVrNsAVKAexjcZXUckd",
    "self" : "https://api.nasa.gov/neo/rest/v1/feed?start_date=2014-10-08&end_date=2014-10-08&detailed=true&api_key=t0TVs3DtDT2H8Oy2Zy8m2eVrNsAVKAexjcZXUckd"
  },
  "element_count" : 13,
  "near_earth_objects" : {
    "2014-10-08" : [ {
      "links" : {
        "self" : "https://api.nasa.gov/neo/rest/v1/neo/3689351?api_key=t0TVs3DtDT2H8Oy2Zy8m2eVrNsAVKAexjcZXUckd"
      },
      "neo_reference_id" : "3689351",
      "name" : "(2014 SM142)",
      "nasa_jpl_url" : "http://ssd.jpl.nasa.gov/sbdb.cgi?sstr=3689351",
      "absolute_magnitude_h" : 22.4,
      "estimated_diameter" : {
        "kilometers" : {
          "estimated_diameter_min" : 0.0880146521,
          "estimated_diameter_max" : 0.1968067451
        },
        "meters" : {
          "estimated_diameter_min" : 88.0146520901,
          "estimated_diameter_max" : 196.8067450894
        },
        "miles" : {
          "estimated_diameter_min" : 0.0546897524,
          "estimated_diameter_max" : 0.122290004
        },
        "feet" : {
          "estimated_diameter_min" : 288.7619911632,
          "estimated_diameter_max" : 645.6914415591
        }
      },
      "is_potentially_hazardous_asteroid" : false,
      "close_approach_data" : [ {
        "close_approach_date" : "2014-10-08",
        "epoch_date_close_approach" : 1412751600000,
        "relative_velocity" : {
          "kilometers_per_second" : "17.5064682501",
          "kilometers_per_hour" : "63023.285700409",
          "miles_per_hour" : "39160.2188286791"
        },
        "miss_distance" : {
          "astronomical" : "0.1211460569",
          "lunar" : "47.1258163452",
          "kilometers" : "18123192",
          "miles" : "11261230"
        },
        "orbiting_body" : "Earth"
      } ],
      "orbital_data" : {
        "orbit_id" : "12",
        "orbit_determination_date" : "2017-04-06 08:38:36",
        "orbit_uncertainty" : "7",
        "minimum_orbit_intersection" : ".0600631",
        "jupiter_tisserand_invariant" : "3.037",
        "epoch_osculation" : "2458000.5",
        "eccentricity" : ".5939661008009498",
        "semi_major_axis" : "2.566108517698491",
        "inclination" : "26.68016213313447",
        "ascending_node_longitude" : "19.54623379679859",
        "orbital_period" : "1501.450276364234",
        "perihelion_distance" : "1.041927047209013",
        "perihelion_argument" : "16.84280059283298",
        "aphelion_distance" : "4.090289988187968",
        "perihelion_time" : "2458456.358049449674",
        "mean_anomaly" : "250.6997451828557",
        "mean_motion" : ".2397681799171804",
        "equinox" : "J2000"
      }
    }, {
      "links" : {
        "self" : "https://api.nasa.gov/neo/rest/v1/neo/3693237?api_key=t0TVs3DtDT2H8Oy2Zy8m2eVrNsAVKAexjcZXUckd"
      },
      "neo_reference_id" : "3693237",
      "name" : "(2014 TM35)",
      "nasa_jpl_url" : "http://ssd.jpl.nasa.gov/sbdb.cgi?sstr=3693237",
      "absolute_magnitude_h" : 23.7,
      "estimated_diameter" : {
        "kilometers" : {
          "estimated_diameter_min" : 0.0483676488,
          "estimated_diameter_max" : 0.1081533507
        },
        "meters" : {
          "estimated_diameter_min" : 48.3676488219,
          "estimated_diameter_max" : 108.1533506775
        },
        "miles" : {
          "estimated_diameter_min" : 0.0300542543,
          "estimated_diameter_max" : 0.0672033557
        },
        "feet" : {
          "estimated_diameter_min" : 158.6865169607,
          "estimated_diameter_max" : 354.8338390368
        }
      },
      "is_potentially_hazardous_asteroid" : false,
      "close_approach_data" : [ {
        "close_approach_date" : "2014-10-08",
        "epoch_date_close_approach" : 1412751600000,
        "relative_velocity" : {
          "kilometers_per_second" : "17.5535682163",
          "kilometers_per_hour" : "63192.8455787156",
          "miles_per_hour" : "39265.5767430636"
        },
        "miss_distance" : {
          "astronomical" : "0.0446348879",
          "lunar" : "17.3629703522",
          "kilometers" : "6677284",
          "miles" : "4149072"
        },
        "orbiting_body" : "Earth"
      } ],
      "orbital_data" : {
        "orbit_id" : "11",
        "orbit_determination_date" : "2017-04-06 08:38:11",
        "orbit_uncertainty" : "8",
        "minimum_orbit_intersection" : ".015639",
        "jupiter_tisserand_invariant" : "3.650",
        "epoch_osculation" : "2456949.5",
        "eccentricity" : ".6118003896882378",
        "semi_major_axis" : "1.936725470911698",
        "inclination" : "3.219245385095671",
        "ascending_node_longitude" : "215.3452847793093",
        "orbital_period" : "984.465550014073",
        "perihelion_distance" : ".7518360730887852",
        "perihelion_argument" : "87.16163120050362",
        "aphelion_distance" : "3.12161486873461",
        "perihelion_time" : "2456894.049835156878",
        "mean_anomaly" : "20.27705219673615",
        "mean_motion" : ".3656806477330302",
        "equinox" : "J2000"
      }
    }, {
      "links" : {
        "self" : "https://api.nasa.gov/neo/rest/v1/neo/3693238?api_key=t0TVs3DtDT2H8Oy2Zy8m2eVrNsAVKAexjcZXUckd"
      },
      "neo_reference_id" : "3693238",
      "name" : "(2014 TO35)",
      "nasa_jpl_url" : "http://ssd.jpl.nasa.gov/sbdb.cgi?sstr=3693238",
      "absolute_magnitude_h" : 24.5,
      "estimated_diameter" : {
        "kilometers" : {
          "estimated_diameter_min" : 0.0334622374,
          "estimated_diameter_max" : 0.0748238376
        },
        "meters" : {
          "estimated_diameter_min" : 33.4622374455,
          "estimated_diameter_max" : 74.8238376074
        },
        "miles" : {
          "estimated_diameter_min" : 0.0207924639,
          "estimated_diameter_max" : 0.0464933628
        },
        "feet" : {
          "estimated_diameter_min" : 109.7842471007,
          "estimated_diameter_max" : 245.4850393757
        }
      },
      "is_potentially_hazardous_asteroid" : false,
      "close_approach_data" : [ {
        "close_approach_date" : "2014-10-08",
        "epoch_date_close_approach" : 1412751600000,
        "relative_velocity" : {
          "kilometers_per_second" : "6.5415249217",
          "kilometers_per_hour" : "23549.489718249",
          "miles_per_hour" : "14632.7370974309"
        },
        "miss_distance" : {
          "astronomical" : "0.0434609431",
          "lunar" : "16.9063072205",
          "kilometers" : "6501664.5",
          "miles" : "4039947"
        },
        "orbiting_body" : "Earth"
      } ],
      "orbital_data" : {
        "orbit_id" : "13",
        "orbit_determination_date" : "2017-04-06 08:38:11",
        "orbit_uncertainty" : "7",
        "minimum_orbit_intersection" : ".0363741",
        "jupiter_tisserand_invariant" : "3.382",
        "epoch_osculation" : "2458000.5",
        "eccentricity" : ".5482426780922435",
        "semi_major_axis" : "2.289388810361931",
        "inclination" : "1.556120714325969",
        "ascending_node_longitude" : "12.71916125815599",
        "orbital_period" : "1265.254121310277",
        "perihelion_distance" : "1.034248157774691",
        "perihelion_argument" : "6.769481112784042",
        "aphelion_distance" : "3.544529462949171",
        "perihelion_time" : "2458210.638194885352",
        "mean_anomaly" : "300.2098369927575",
        "mean_motion" : ".2845278224639883",
        "equinox" : "J2000"
      }
    } ]
  }
}